BEIJING 1               
1 28890U 05043A   19070.79618318  .00000033  00000-0  15880-4 0  9991
2 28890  97.9624 209.9280 0014422 324.7756  35.2500 14.61249956712803
HJ-1A                   
1 33320U 08041A   19070.76281512  .00000089  00000-0  19725-4 0  9998
2 33320  97.8516 131.9039 0026615 139.0871 221.2339 14.77000598566150
HJ-1B                   
1 33321U 08041B   19070.79874930  .00000078  00000-0  18179-4 0  9994
2 33321  97.8588 133.7094 0035245 156.4208 203.8624 14.77105199566153
YAOGAN 4                
1 33446U 08061A   19070.48068646  .00000066  00000-0  16164-4 0  9998
2 33446  97.6628  42.5258 0017340  49.8313 310.4413 14.76932203553342
DEIMOS-1                
1 35681U 09041A   19070.83545419 -.00000089  00000-0 -65939-5 0  9999
2 35681  97.8773 315.9393 0003341 101.9515 258.2072 14.71773807516195
UK-DMC 2                
1 35683U 09041C   19070.84839975 -.00000038  00000-0  12184-5 0  9992
2 35683  97.7504 292.3033 0001902  94.2380 265.9049 14.71067449516010
RISAT 1                 
1 38248U 12017A   19070.48732025  .00000248  00000-0  19309-4 0  9994
2 38248  97.5728  80.3447 0005344  50.4710 309.6990 15.09745297378625
DMC3-FM1                
1 40715U 15032A   19070.71010112  .00000007  00000-0  88453-5 0  9998
2 40715  97.9811 328.2462 0014320 273.1814  86.7759 14.73687502197357
DMC3-FM2                
1 40716U 15032B   19070.73269672  .00000009  00000-0  91295-5 0  9998
2 40716  97.9827 328.4909 0011774 283.2946  76.6956 14.73697612197362
DMC3-FM3                
1 40717U 15032C   19070.75551009 -.00000002  00000-0  74337-5 0  9991
2 40717  97.9829 329.2047 0015273 274.5658  85.3810 14.73686750197365
